      2.10          N: GNSS NAV DATA                        RINEX VERSION / TYPE
fic2rin                                 08/25/2018 00:13:21 PGM / RUN BY / DATE
                                                            END OF HEADER
 2 18  8 24  1 59 44.0 1.910794526339e-05-1.114131009672e-11 0.000000000000e+00
    1.000000000000e+00-9.312500000000e+01 4.881631910992e-09 1.018764445594e+00
   -5.004927515984e-06 1.801077113487e-02 4.487112164497e-06 5.153799722672e+03
    4.391840000000e+05-3.259629011154e-07 1.967201440808e+00-2.607703208923e-08
    9.511776917745e-01 2.894687500000e+02-1.837400460316e+00-8.686433253383e-09
   -2.810831368123e-10 1.000000000000e+00 2.015000000000e+03 0.000000000000e+00
    2.400000000000e+00 0.000000000000e+00-2.048909664154e-08 1.000000000000e+00
    4.320060000000e+05 4.000000000000e+00
28 18  8 24  1 59 44.0 7.401569746435e-04 2.501110429876e-12 0.000000000000e+00
    4.200000000000e+01 8.859375000000e+01 3.528004098389e-09-2.471129408344e+00
    4.533678293228e-06 1.949022314511e-02 1.013837754726e-05 5.153690376282e+03
    4.391840000000e+05 2.384185791016e-07 1.776027752399e-02 5.960464477539e-08
    9.854277068594e-01 1.967187500000e+02-1.515283400150e+00-7.173870249063e-09
   -7.286017777600e-11 1.000000000000e+00 2.015000000000e+03 0.000000000000e+00
    2.400000000000e+00 0.000000000000e+00-1.117587089539e-08 4.200000000000e+01
    4.320060000000e+05 4.000000000000e+00
 1 18  8 24  2  0  0.0-7.983623072505e-05-4.320099833421e-12 0.000000000000e+00
    3.700000000000e+01-9.296875000000e+01 4.282321233011e-09 7.124544815260e-01
   -4.930421710014e-06 8.080891333520e-03 4.667788743973e-06 5.153667501450e+03
    4.392000000000e+05-9.685754776001e-08 2.030188465659e+00 9.313225746155e-08
    9.721330218824e-01 2.974062500000e+02 6.858513659938e-01-8.160697068646e-09
   -2.467959943295e-10 1.000000000000e+00 2.015000000000e+03 0.000000000000e+00
    2.400000000000e+00 0.000000000000e+00 5.587935447693e-09 3.700000000000e+01
    4.320060000000e+05 4.000000000000e+00
 3 18  8 24  2  0  0.0 1.261117868125e-04 5.570655048359e-12 0.000000000000e+00
    5.600000000000e+01-4.031250000000e+01 4.331609000330e-09-2.817907782656e-01
   -1.983717083931e-06 1.656740088947e-03 1.085363328457e-05 5.153699728012e+03
    4.392000000000e+05 4.470348358154e-08 3.072862677568e+00 0.000000000000e+00
    9.619350711540e-01 1.747812500000e+02 5.756959840714e-01-7.814968381945e-09
    3.425142670940e-10 1.000000000000e+00 2.015000000000e+03 0.000000000000e+00
    2.400000000000e+00 0.000000000000e+00 1.862645149231e-09 5.600000000000e+01
    4.320060000000e+05 4.000000000000e+00
10 18  8 24  2  0  0.0 1.855902373791e-04-1.591615728103e-12 0.000000000000e+00
    2.400000000000e+01-4.865625000000e+01 4.223390206869e-09-1.294156295833e+00
   -2.561137080193e-06 3.727921051905e-03 1.140125095844e-05 5.153672197342e+03
    4.392000000000e+05 5.774199962616e-08 3.069461969423e+00-1.862645149231e-09
    9.620091094380e-01 1.578125000000e+02-2.784192689418e+00-7.754251567131e-09
    4.085884479203e-10 1.000000000000e+00 2.015000000000e+03 0.000000000000e+00
    2.400000000000e+00 0.000000000000e+00 1.862645149231e-09 2.400000000000e+01
    4.320060000000e+05 4.000000000000e+00
 9 18  8 24  2  0  0.0 5.098637193441e-04-1.591615728103e-12 0.000000000000e+00
    3.700000000000e+01 2.771875000000e+01 5.192359139743e-09-3.031350441628e+00
    1.495704054832e-06 9.567131055519e-04 5.872920155525e-06 5.153553564072e+03
    4.392000000000e+05 7.450580596924e-08-2.177281225622e+00 6.705522537231e-08
    9.525203287293e-01 2.628437500000e+02 1.780320861053e+00-8.321418049035e-09
    3.978737158944e-10 1.000000000000e+00 2.015000000000e+03 0.000000000000e+00
    2.400000000000e+00 0.000000000000e+00 9.313225746155e-10 3.700000000000e+01
    4.320060000000e+05 4.000000000000e+00
 8 18  8 24  2  0  0.0-1.127086579800e-04-1.364242052659e-12 0.000000000000e+00
    7.500000000000e+01 7.531250000000e+01 4.400897600764e-09-3.024763552034e+00
    3.913417458534e-06 3.480380168185e-03 2.926215529442e-06 5.153613035202e+03
    4.392000000000e+05 0.000000000000e+00 9.644065673817e-01 7.078051567078e-08
    9.695033139902e-01 3.276875000000e+02-4.010183106051e-01-8.202484523547e-09
    2.228664261384e-10 1.000000000000e+00 2.015000000000e+03 0.000000000000e+00
    2.400000000000e+00 0.000000000000e+00 5.122274160385e-09 7.500000000000e+01
    4.320060000000e+05 4.000000000000e+00
 5 18  8 24  2  0  0.0-2.812128514051e-06 4.547473508865e-13 0.000000000000e+00
    6.300000000000e+01-4.259375000000e+01 4.542332063506e-09-2.604655940866e+00
   -2.490356564522e-06 5.574013339356e-03 1.172348856926e-05 5.153777416229e+03
    4.392000000000e+05-9.313225746155e-09 3.049836105618e+00-8.009374141693e-08
    9.488170686451e-01 1.482187500000e+02 6.620419441558e-01-7.853541417238e-09
    3.950164540209e-10 1.000000000000e+00 2.015000000000e+03 0.000000000000e+00
    2.400000000000e+00 0.000000000000e+00-1.117587089539e-08 6.300000000000e+01
    4.320060000000e+05 4.000000000000e+00
 7 18  8 24  2  0  0.0 1.365211792290e-04-6.480149750132e-12 0.000000000000e+00
    3.700000000000e+01-2.315625000000e+01 4.904132848246e-09 6.373597307625e-02
   -1.201406121254e-06 1.205118186772e-02 7.070600986481e-06 5.153642341614e+03
    4.392000000000e+05 0.000000000000e+00-1.099443050799e+00 1.303851604462e-07
    9.574598701610e-01 2.389687500000e+02-2.498070996307e+00-8.343918986289e-09
   -6.046680439940e-10 1.000000000000e+00 2.015000000000e+03 0.000000000000e+00
    2.400000000000e+00 0.000000000000e+00-1.117587089539e-08 3.700000000000e+01
    4.320060000000e+05 4.000000000000e+00
 6 18  8 24  2  0  0.0 3.726324066520e-04-4.547473508865e-12 0.000000000000e+00
    7.600000000000e+01-9.584375000000e+01 4.236605043034e-09 9.480242109337e-01
   -4.855915904045e-06 9.735275525600e-04 4.896894097328e-06 5.153687749863e+03
    4.392000000000e+05-2.235174179077e-08 2.021863872232e+00-4.470348358154e-08
    9.718273656306e-01 2.872500000000e+02-1.089557823680e+00-8.104623304378e-09
   -1.592923494515e-10 1.000000000000e+00 2.015000000000e+03 0.000000000000e+00
    2.400000000000e+00 0.000000000000e+00 4.656612873077e-09 7.600000000000e+01
    4.320060000000e+05 4.000000000000e+00
22 18  8 24  2  0  0.0-4.982850514352e-04-1.136868377216e-11 0.000000000000e+00
    3.800000000000e+01-5.421875000000e+01 5.093069289636e-09 2.167058263384e+00
   -2.814456820488e-06 7.158457301557e-03 1.069344580173e-05 5.153738891602e+03
    4.392000000000e+05 1.545995473862e-07 3.010048183423e+00-5.587935447693e-08
    9.260936513578e-01 1.578750000000e+02-1.493317862203e+00-8.044977962767e-09
    2.767972440020e-10 1.000000000000e+00 2.015000000000e+03 0.000000000000e+00
    2.400000000000e+00 0.000000000000e+00-1.816079020500e-08 3.800000000000e+01
    4.320060000000e+05 4.000000000000e+00
15 18  8 24  2  0  0.0-3.477605059743e-04 9.094947017729e-13 0.000000000000e+00
    3.100000000000e+01 3.128125000000e+01 5.734524580252e-09 1.993584246729e+00
    1.605600118637e-06 1.052873197477e-02 6.446614861488e-06 5.153795324326e+03
    4.392000000000e+05-2.868473529816e-07-2.250268685317e+00-6.519258022308e-08
    9.281170674812e-01 2.403125000000e+02 6.995339627174e-01-8.522855011121e-09
    4.421612749348e-10 1.000000000000e+00 2.015000000000e+03 0.000000000000e+00
    2.400000000000e+00 0.000000000000e+00-1.071020960808e-08 3.100000000000e+01
    4.320060000000e+05 4.000000000000e+00
23 18  8 24  2  0  0.0-2.122498117387e-04 6.821210263297e-13 0.000000000000e+00
    3.700000000000e+01 2.837500000000e+01 5.452727127972e-09 1.537927979319e+00
    1.499429345131e-06 1.264636660926e-02 6.195157766342e-06 5.153739593506e+03
    4.392000000000e+05-3.073364496231e-07-2.179752417563e+00 1.322478055954e-07
    9.433390256055e-01 2.560937500000e+02-2.332547054347e+00-8.542498686502e-09
    3.485859485754e-10 1.000000000000e+00 2.015000000000e+03 0.000000000000e+00
    2.400000000000e+00 0.000000000000e+00-2.002343535423e-08 3.700000000000e+01
    4.320060000000e+05 4.000000000000e+00
14 18  8 24  2  0  0.0-9.754905477166e-05 1.136868377216e-13 0.000000000000e+00
    8.400000000000e+01 2.375000000000e+01 4.893418116221e-09 2.616043214735e+00
    1.145526766777e-06 1.006746396888e-02 5.526468157768e-06 5.153611234665e+03
    4.392000000000e+05 3.352761268616e-08-2.086720234285e+00-1.545995473862e-07
    9.606658697609e-01 2.706562500000e+02-1.943072996035e+00-7.978903781941e-09
    2.539391490134e-10 1.000000000000e+00 2.015000000000e+03 0.000000000000e+00
    2.400000000000e+00 0.000000000000e+00-9.778887033463e-09 8.400000000000e+01
    4.320060000000e+05 4.000000000000e+00
13 18  8 24  2  0  0.0-9.047426283360e-05 6.821210263297e-13 0.000000000000e+00
    5.400000000000e+01 2.196875000000e+01 4.843058875699e-09 1.665717693222e+00
    1.145526766777e-06 3.336357418448e-03 5.567446351051e-06 5.153657690048e+03
    4.392000000000e+05-2.607703208923e-08-2.044201099627e+00-8.754432201385e-08
    9.680769483821e-01 2.759375000000e+02 1.490467177609e+00-8.074622054705e-09
    2.757257707994e-10 1.000000000000e+00 2.015000000000e+03 0.000000000000e+00
    2.400000000000e+00 0.000000000000e+00-1.117587089539e-08 5.400000000000e+01
    4.320060000000e+05 4.000000000000e+00
11 18  8 24  2  0  0.0-7.228762842715e-04 2.387423592154e-12 0.000000000000e+00
    3.300000000000e+01-4.125000000000e+01 6.019179294407e-09 6.628346789821e-02
   -2.264976501465e-06 1.705832791049e-02 1.499429345131e-06 5.153648338318e+03
    4.392000000000e+05-2.346932888031e-07 1.597189237091e+00-2.123415470123e-07
    9.060848965415e-01 3.232187500000e+02 1.803207281061e+00-9.304316133542e-09
   -6.428839215530e-11 1.000000000000e+00 2.015000000000e+03 0.000000000000e+00
    2.400000000000e+00 0.000000000000e+00-1.210719347000e-08 3.300000000000e+01
    4.320060000000e+05 4.000000000000e+00
